[{"OBJECT_NAME":"ITAMSAT (IO-26)","OBJECT_ID":"1993-061D","EPOCH":"2026-03-09T18:51:40.558176","MEAN_MOTION":14.31337175,"ECCENTRICITY":0.00091856,"INCLINATION":98.6929,"RA_OF_ASC_NODE":136.1036,"ARG_OF_PERICENTER":22.8845,"MEAN_ANOMALY":337.2746,"EPHEMERIS_TYPE":0,"CLASSIFICATION_TYPE":"U","NORAD_CAT_ID":22826,"ELEMENT_SET_NO":999,"REV_AT_EPOCH":69309,"BSTAR":7.3937292e-5,"MEAN_MOTION_DOT":1.51e-6,"MEAN_MOTION_DDOT":0},{"OBJECT_NAME":"DMSP 5D-2 F13 DEB","OBJECT_ID":"1995-015HB","EPOCH":"2026-03-08T07:26:04.460640","MEAN_MOTION":14.26598707,"ECCENTRICITY":0.00289946,"INCLINATION":98.9048,"RA_OF_ASC_NODE":97.6141,"ARG_OF_PERICENTER":320.5998,"MEAN_ANOMALY":39.3072,"EPHEMERIS_TYPE":0,"CLASSIFICATION_TYPE":"U","NORAD_CAT_ID":42285,"ELEMENT_SET_NO":999,"REV_AT_EPOCH":55347,"BSTAR":0.0023073078,"MEAN_MOTION_DOT":5.552e-5,"MEAN_MOTION_DDOT":0}]
